STARLINK-30069          
1 56834U 23079M   26067.48212902 -.00002416  00000+0 -80472-4 0  9995
2 56834  42.9986 110.4464 0000469 272.6695  87.4103 15.26726881152740
STARLINK-31945          
1 59870U 24098N   26068.56250848 -.00000158  00000+0  37596-5 0  9991
2 59870  42.9998 274.6558 0000716  63.6788 296.4137 15.27576039101875
