[{"OBJECT_NAME":"STARLINK-30069","OBJECT_ID":"2023-079M","EPOCH":"2026-03-08T11:34:15.947328","MEAN_MOTION":15.26726881,"ECCENTRICITY":4.69e-5,"INCLINATION":42.9986,"RA_OF_ASC_NODE":110.4464,"ARG_OF_PERICENTER":272.6695,"MEAN_ANOMALY":87.4103,"EPHEMERIS_TYPE":0,"CLASSIFICATION_TYPE":"U","NORAD_CAT_ID":56834,"ELEMENT_SET_NO":999,"REV_AT_EPOCH":15274,"BSTAR":-8.0472e-5,"MEAN_MOTION_DOT":-2.416e-5,"MEAN_MOTION_DDOT":0},{"OBJECT_NAME":"STARLINK-31945","OBJECT_ID":"2024-098N","EPOCH":"2026-03-09T13:30:00.733536","MEAN_MOTION":15.27576039,"ECCENTRICITY":7.165e-5,"INCLINATION":42.9998,"RA_OF_ASC_NODE":274.6558,"ARG_OF_PERICENTER":63.6788,"MEAN_ANOMALY":296.4137,"EPHEMERIS_TYPE":0,"CLASSIFICATION_TYPE":"U","NORAD_CAT_ID":59870,"ELEMENT_SET_NO":999,"REV_AT_EPOCH":10187,"BSTAR":3.759649e-6,"MEAN_MOTION_DOT":-1.58e-6,"MEAN_MOTION_DDOT":0}]
